ALOS (DAICHI)           
1 28931U 06002A   25346.28687871  .00002463  00000+0  42384-3 0  9996
2 28931  98.1091 297.7774 0001120 115.8260 244.3061 14.69486288 60645
H-2A R/B                
1 28932U 06002B   25346.25683999  .00016110  00000+0  84474-3 0  9991
2 28932  98.2315 120.9655 0054497 177.9954 182.1505 15.14556285 81196
RESURS-DK 1             
1 29228U 06021A   25346.30118356  .00004199  00000+0  24895-3 0  9992
2 29228  69.9331 102.9717 0007290 260.1087  99.9256 15.12156951 74316
CZ-4B R/B               
1 29507U 06046C   25346.10901016  .00007659  00000+0  39828-3 0  9996
2 29507  97.5738  26.2489 0033216 208.6168 151.3243 15.15862387 46770
CZ-2C R/B               
1 31114U 07010B   25346.29599158  .00000281  00000+0  14806-3 0  9998
2 31114  98.3974  98.9692 0058948 187.2851 172.7476 14.20209839967319
COSMO-SKYMED 1          
1 31598U 07023A   25346.31990637  .00006012  00000+0  54439-3 0  9992
2 31598  97.8835 171.7163 0001176  88.8836 271.2519 14.95759021  1843
COSMOS 2428             
1 31792U 07029A   25346.31358223  .00000121  00000+0  90809-4 0  9990
2 31792  70.9368  26.7749 0003638  24.0728 336.0562 14.12889618951755
SL-16 R/B               
1 31793U 07029B   25346.30869573 -.00000050  00000+0 -12373-5 0  9999
2 31793  70.9756 356.0640 0002189 262.4289 108.4804 14.14814824953016
KORONAS-FOTON           
1 33504U 09003A   25346.10516147  .00016542  00000+0  39676-3 0  9993
2 33504  82.4316   6.7634 0013179 110.3841 249.8822 15.41163340932249
CZ-2C R/B               
1 37731U 11030B   25346.27019273  .00002642  00000+0  34121-3 0  9994
2 37731  97.8411 300.3872 0051348 275.1900 222.1040 14.80900408777153
H-2A R/B                
1 38341U 12025E   25345.83625930  .00005788  00000+0  53307-3 0  9992
2 38341  98.4600 300.9967 0043608 239.1123 120.5803 14.94443182735097
SHIJIAN-16 (SJ-16)      
1 39358U 13057A   25346.33407963  .00000825  00000+0  84087-4 0  9994
2 39358  74.9737 350.4227 0017613 320.5565  39.4339 14.91981277658474
