CCSDS_OMM_VERS = 2.0
CREATION_DATE  = 
ORIGINATOR     = 

OBJECT_NAME    = ALOS (DAICHI)
OBJECT_ID      = 2006-002A
CENTER_NAME    = EARTH
REF_FRAME      = TEME
TIME_SYSTEM    = UTC
MEAN_ELEMENT_THEORY = SGP/SGP4

EPOCH          = 2025-12-12T06:53:06.320544
MEAN_MOTION    = 14.69486288
ECCENTRICITY   = .00011206
INCLINATION    = 98.1091
RA_OF_ASC_NODE = 297.7774
ARG_OF_PERICENTER = 115.8260
MEAN_ANOMALY   = 244.3061

EPHEMERIS_TYPE = 0
CLASSIFICATION_TYPE = U
NORAD_CAT_ID   = 28931
ELEMENT_SET_NO = 999
REV_AT_EPOCH   = 6064
BSTAR          = .42383716E-3
MEAN_MOTION_DOT = .2463E-4
MEAN_MOTION_DDOT = 0

CCSDS_OMM_VERS = 2.0
CREATION_DATE  = 
ORIGINATOR     = 

OBJECT_NAME    = H-2A R/B
OBJECT_ID      = 2006-002B
CENTER_NAME    = EARTH
REF_FRAME      = TEME
TIME_SYSTEM    = UTC
MEAN_ELEMENT_THEORY = SGP/SGP4

EPOCH          = 2025-12-12T06:09:50.975136
MEAN_MOTION    = 15.14556285
ECCENTRICITY   = .00544977
INCLINATION    = 98.2315
RA_OF_ASC_NODE = 120.9655
ARG_OF_PERICENTER = 177.9954
MEAN_ANOMALY   = 182.1505

EPHEMERIS_TYPE = 0
CLASSIFICATION_TYPE = U
NORAD_CAT_ID   = 28932
ELEMENT_SET_NO = 999
REV_AT_EPOCH   = 8119
BSTAR          = .84474006E-3
MEAN_MOTION_DOT = .1611E-3
MEAN_MOTION_DDOT = 0

CCSDS_OMM_VERS = 2.0
CREATION_DATE  = 
ORIGINATOR     = 

OBJECT_NAME    = RESURS-DK 1
OBJECT_ID      = 2006-021A
CENTER_NAME    = EARTH
REF_FRAME      = TEME
TIME_SYSTEM    = UTC
MEAN_ELEMENT_THEORY = SGP/SGP4

EPOCH          = 2025-12-12T07:13:42.259584
MEAN_MOTION    = 15.12156951
ECCENTRICITY   = .00072906
INCLINATION    = 69.9331
RA_OF_ASC_NODE = 102.9717
ARG_OF_PERICENTER = 260.1087
MEAN_ANOMALY   = 99.9256

EPHEMERIS_TYPE = 0
CLASSIFICATION_TYPE = U
NORAD_CAT_ID   = 29228
ELEMENT_SET_NO = 999
REV_AT_EPOCH   = 7431
BSTAR          = .2489462E-3
MEAN_MOTION_DOT = .4199E-4
MEAN_MOTION_DDOT = 0

CCSDS_OMM_VERS = 2.0
CREATION_DATE  = 
ORIGINATOR     = 

OBJECT_NAME    = CZ-4B R/B
OBJECT_ID      = 2006-046C
CENTER_NAME    = EARTH
REF_FRAME      = TEME
TIME_SYSTEM    = UTC
MEAN_ELEMENT_THEORY = SGP/SGP4

EPOCH          = 2025-12-12T02:36:58.477824
MEAN_MOTION    = 15.15862387
ECCENTRICITY   = .00332164
INCLINATION    = 97.5738
RA_OF_ASC_NODE = 26.2489
ARG_OF_PERICENTER = 208.6168
MEAN_ANOMALY   = 151.3243

EPHEMERIS_TYPE = 0
CLASSIFICATION_TYPE = U
NORAD_CAT_ID   = 29507
ELEMENT_SET_NO = 999
REV_AT_EPOCH   = 4677
BSTAR          = .39828372E-3
MEAN_MOTION_DOT = .7659E-4
MEAN_MOTION_DDOT = 0

CCSDS_OMM_VERS = 2.0
CREATION_DATE  = 
ORIGINATOR     = 

OBJECT_NAME    = CZ-2C R/B
OBJECT_ID      = 2007-010B
CENTER_NAME    = EARTH
REF_FRAME      = TEME
TIME_SYSTEM    = UTC
MEAN_ELEMENT_THEORY = SGP/SGP4

EPOCH          = 2025-12-12T07:06:13.672512
MEAN_MOTION    = 14.20209839
ECCENTRICITY   = .00589487
INCLINATION    = 98.3974
RA_OF_ASC_NODE = 98.9692
ARG_OF_PERICENTER = 187.2851
MEAN_ANOMALY   = 172.7476

EPHEMERIS_TYPE = 0
CLASSIFICATION_TYPE = U
NORAD_CAT_ID   = 31114
ELEMENT_SET_NO = 999
REV_AT_EPOCH   = 96731
BSTAR          = .14806349E-3
MEAN_MOTION_DOT = .281E-5
MEAN_MOTION_DDOT = 0

CCSDS_OMM_VERS = 2.0
CREATION_DATE  = 
ORIGINATOR     = 

OBJECT_NAME    = COSMO-SKYMED 1
OBJECT_ID      = 2007-023A
CENTER_NAME    = EARTH
REF_FRAME      = TEME
TIME_SYSTEM    = UTC
MEAN_ELEMENT_THEORY = SGP/SGP4

EPOCH          = 2025-12-12T07:40:39.910368
MEAN_MOTION    = 14.95759021
ECCENTRICITY   = .00011763
INCLINATION    = 97.8835
RA_OF_ASC_NODE = 171.7163
ARG_OF_PERICENTER = 88.8836
MEAN_ANOMALY   = 271.2519

EPHEMERIS_TYPE = 0
CLASSIFICATION_TYPE = U
NORAD_CAT_ID   = 31598
ELEMENT_SET_NO = 999
REV_AT_EPOCH   = 184
BSTAR          = .54439299E-3
MEAN_MOTION_DOT = .6012E-4
MEAN_MOTION_DDOT = 0

CCSDS_OMM_VERS = 2.0
CREATION_DATE  = 
ORIGINATOR     = 

OBJECT_NAME    = COSMOS 2428
OBJECT_ID      = 2007-029A
CENTER_NAME    = EARTH
REF_FRAME      = TEME
TIME_SYSTEM    = UTC
MEAN_ELEMENT_THEORY = SGP/SGP4

EPOCH          = 2025-12-12T07:31:33.504672
MEAN_MOTION    = 14.12889618
ECCENTRICITY   = .00036389
INCLINATION    = 70.9368
RA_OF_ASC_NODE = 26.7749
ARG_OF_PERICENTER = 24.0728
MEAN_ANOMALY   = 336.0562

EPHEMERIS_TYPE = 0
CLASSIFICATION_TYPE = U
NORAD_CAT_ID   = 31792
ELEMENT_SET_NO = 999
REV_AT_EPOCH   = 95175
BSTAR          = .90809283E-4
MEAN_MOTION_DOT = .121E-5
MEAN_MOTION_DDOT = 0

CCSDS_OMM_VERS = 2.0
CREATION_DATE  = 
ORIGINATOR     = 

OBJECT_NAME    = SL-16 R/B
OBJECT_ID      = 2007-029B
CENTER_NAME    = EARTH
REF_FRAME      = TEME
TIME_SYSTEM    = UTC
MEAN_ELEMENT_THEORY = SGP/SGP4

EPOCH          = 2025-12-12T07:24:31.311072
MEAN_MOTION    = 14.14814824
ECCENTRICITY   = .00021892
INCLINATION    = 70.9756
RA_OF_ASC_NODE = 356.0640
ARG_OF_PERICENTER = 262.4289
MEAN_ANOMALY   = 108.4804

EPHEMERIS_TYPE = 0
CLASSIFICATION_TYPE = U
NORAD_CAT_ID   = 31793
ELEMENT_SET_NO = 999
REV_AT_EPOCH   = 95301
BSTAR          = -.1237328E-5
MEAN_MOTION_DOT = -.5E-6
MEAN_MOTION_DDOT = 0

CCSDS_OMM_VERS = 2.0
CREATION_DATE  = 
ORIGINATOR     = 

OBJECT_NAME    = KORONAS-FOTON
OBJECT_ID      = 2009-003A
CENTER_NAME    = EARTH
REF_FRAME      = TEME
TIME_SYSTEM    = UTC
MEAN_ELEMENT_THEORY = SGP/SGP4

EPOCH          = 2025-12-12T02:31:25.951008
MEAN_MOTION    = 15.41163340
ECCENTRICITY   = .00131792
INCLINATION    = 82.4316
RA_OF_ASC_NODE = 6.7634
ARG_OF_PERICENTER = 110.3841
MEAN_ANOMALY   = 249.8822

EPHEMERIS_TYPE = 0
CLASSIFICATION_TYPE = U
NORAD_CAT_ID   = 33504
ELEMENT_SET_NO = 999
REV_AT_EPOCH   = 93224
BSTAR          = .3967566E-3
MEAN_MOTION_DOT = .16542E-3
MEAN_MOTION_DDOT = 0

CCSDS_OMM_VERS = 2.0
CREATION_DATE  = 
ORIGINATOR     = 

OBJECT_NAME    = CZ-2C R/B
OBJECT_ID      = 2011-030B
CENTER_NAME    = EARTH
REF_FRAME      = TEME
TIME_SYSTEM    = UTC
MEAN_ELEMENT_THEORY = SGP/SGP4

EPOCH          = 2025-12-12T06:29:04.651872
MEAN_MOTION    = 14.80900408
ECCENTRICITY   = .00513483
INCLINATION    = 97.8411
RA_OF_ASC_NODE = 300.3872
ARG_OF_PERICENTER = 275.1900
MEAN_ANOMALY   = 222.1040

EPHEMERIS_TYPE = 0
CLASSIFICATION_TYPE = U
NORAD_CAT_ID   = 37731
ELEMENT_SET_NO = 999
REV_AT_EPOCH   = 77715
BSTAR          = .34120911E-3
MEAN_MOTION_DOT = .2642E-4
MEAN_MOTION_DDOT = 0

CCSDS_OMM_VERS = 2.0
CREATION_DATE  = 
ORIGINATOR     = 

OBJECT_NAME    = H-2A R/B
OBJECT_ID      = 2012-025E
CENTER_NAME    = EARTH
REF_FRAME      = TEME
TIME_SYSTEM    = UTC
MEAN_ELEMENT_THEORY = SGP/SGP4

EPOCH          = 2025-12-11T20:04:12.803520
MEAN_MOTION    = 14.94443182
ECCENTRICITY   = .00436088
INCLINATION    = 98.4600
RA_OF_ASC_NODE = 300.9967
ARG_OF_PERICENTER = 239.1123
MEAN_ANOMALY   = 120.5803

EPHEMERIS_TYPE = 0
CLASSIFICATION_TYPE = U
NORAD_CAT_ID   = 38341
ELEMENT_SET_NO = 999
REV_AT_EPOCH   = 73509
BSTAR          = .53306911E-3
MEAN_MOTION_DOT = .5788E-4
MEAN_MOTION_DDOT = 0

CCSDS_OMM_VERS = 2.0
CREATION_DATE  = 
ORIGINATOR     = 

OBJECT_NAME    = SHIJIAN-16 (SJ-16)
OBJECT_ID      = 2013-057A
CENTER_NAME    = EARTH
REF_FRAME      = TEME
TIME_SYSTEM    = UTC
MEAN_ELEMENT_THEORY = SGP/SGP4

EPOCH          = 2025-12-12T08:01:04.480032
MEAN_MOTION    = 14.91981277
ECCENTRICITY   = .00176136
INCLINATION    = 74.9737
RA_OF_ASC_NODE = 350.4227
ARG_OF_PERICENTER = 320.5565
MEAN_ANOMALY   = 39.4339

EPHEMERIS_TYPE = 0
CLASSIFICATION_TYPE = U
NORAD_CAT_ID   = 39358
ELEMENT_SET_NO = 999
REV_AT_EPOCH   = 65847
BSTAR          = .84087181E-4
MEAN_MOTION_DOT = .825E-5
MEAN_MOTION_DDOT = 0

